ORBCOMM-X               
1 21576U 91050C   24235.17756892  .00001168  00000+0  36417-3 0  9996
2 21576  98.3849 301.3286 0003992  28.6282 331.5127 14.42671592738997
ORBCOMM FM01            
1 23545U 95017A   24235.59189233  .00011248  00000+0  14225-2 0  9998
2 23545  69.9656  94.6687 0002565  64.2160 295.9255 14.82019747568132
ORBCOMM FM02            
1 23546U 95017B   24235.37526101  .00012926  00000+0  16445-2 0  9994
2 23546  69.9680 114.7874 0004395  52.0726 308.0821 14.81716559567743
ORBCOMM FM08            
1 25112U 97084A   24235.60053571  .00005231  00000+0  15791-2 0  9997
2 25112  45.0157 358.7957 0008514 190.9017 169.1650 14.43283779398190
ORBCOMM FM10            
1 25113U 97084B   24235.54572712  .00004874  00000+0  14782-2 0  9995
2 25113  45.0172   1.0073 0005630 169.5016 190.5953 14.43161637573335
ORBCOMM FM11            
1 25114U 97084C   24235.57405116  .00004506  00000+0  13741-2 0  9998
2 25114  45.0157   1.0346 0006388 167.2401 192.8612 14.43015370398307
ORBCOMM FM12            
1 25115U 97084D   24235.60584110  .00004876  00000+0  14846-2 0  9992
2 25115  45.0162   0.6153 0005496 170.2339 189.8619 14.42973222398107
ORBCOMM FM09            
1 25116U 97084E   24235.55052670  .00004747  00000+0  14477-2 0  9995
2 25116  45.0164   1.5976 0006042 153.4554 206.6607 14.42934724398304
